Unique ID,Street address,City,State,Zip
0,1702 W  Yuma St,Phoenix,AZ,85007
1,2032 W Adams St,Phoenix,AZ,85009
2,11850 N  19th Ave,Phoenix,AZ,85029
3,5145 N  7th St,Phoenix,AZ,85014
4,1595 W Mountain View Rd,Phoenix,AZ,85021
5,3734 W  Camelback Rd,Phoenix,AZ,85019
6,10634 N 13th Ave,Phoenix,AZ,85029
7,1905 W  Las Palmaritas Dr -D141,Phoenix,AZ,85021
8,1116 W  Indian School Rd   e1446bdf,Phoenix,AZ,85013
9,7516 N 21st Ave,Phoenix,AZ,85021
10,2916 E Monroe St,Phoenix,AZ,85034
11,2030 W  Indian School Rd,Phoenix,AZ,85015
12,8222 N  19th Ave,Phoenix,AZ,85021
13,3221 W  El Camino Dr f5d61a9e,Phoenix,AZ,85051
14,8135 N  35th Ave ed5cc2ce,Phoenix,AZ,85051
15,6601 S 22nd Way,Phoenix,AZ,85042
16,1448 S 13th Ave,Phoenix,AZ,85007
17,1925 W Village Dr,Phoenix,AZ,85023
18,5128 N  15th St,Phoenix,AZ,85014
19,2139 W Glenrosa Ave,Phoenix,AZ,85015
20,829 N 4th Ave,Phoenix,AZ,85003
21,12810 N  Cave Creek Rd,Phoenix,AZ,85022
22,12435 N  28th Dr   -F15,Phoenix,AZ,85029
23,3161 W  Cheryl Dr,Phoenix,AZ,85051
24,338 N  23rd St,Phoenix,AZ,85006
25,2323 E  Van Buren St S,Phoenix,AZ,85006
26,6545 N  19th Ave,Phoenix,AZ,85015
27,1601 W  Camelback Rd,Phoenix,AZ,85015
28,1229 W Pierce St,Phoenix,AZ,85007
29,1223 Grand Ave,Phoenix,AZ,85007
30,8816 N 6th Pl,Phoenix,AZ,85020
31,9230 N 6th St,Phoenix,AZ,85020
32,909 E Roosevelt St,Phoenix,AZ,85006
33,1216 W Roosevelt St,Phoenix,AZ,85007
34,621 N  30th Pl,Phoenix,AZ,85008
35,3810 N  Maryvale Pkwy,Phoenix,AZ,85031
36,6653 N 27th Ave,Phoenix,AZ,85017
37,1402 W Polk St,Phoenix,AZ,85007
38,8816 N 6th Pl,Phoenix,AZ,85020
39,4214 N 10th St,Phoenix,AZ,85014
40,1301 W Clarendon Ave,Phoenix,AZ,85013
41,4223 N 1st Ave,Phoenix,AZ,85013
42,9202 N  19th Ave  e7e2d315,Phoenix,AZ,85021
43,2010 E Sweetwater Ave,Phoenix,AZ,85022
44,2343 E Pueblo Ave,Phoenix,AZ,85040
45,825 N  2nd Ave,Phoenix,AZ,85003
46,602 N 5th Ave,Phoenix,AZ,85003
47,9238 N 7th Ave,Phoenix,AZ,85021
48,4903 W  Thomas Rd,Phoenix,AZ,85031
49,11821 N  28th Dr   ad5dcd,Phoenix,AZ,85029
50,5106 E  Van Buren St,Phoenix,AZ,85008
51,5115 N  40th St,Phoenix,AZ,85018
52,2201 E Roosevelt St,Phoenix,AZ,85006
53,2501 W  Ocotillo Rd,Phoenix,AZ,85017
54,1502 W  Glendale Ave  fccd959,Phoenix,AZ,85021
55,2122 W Amelia Ave,Phoenix,AZ,85015
56,6131 N  27th Ave,Phoenix,AZ,85017
57,4141 W  Glendale Ave,Phoenix,AZ,85051
58,1041 N  25th Pl,Phoenix,AZ,85008
59,2809 E Wier Ave,Phoenix,AZ,85040
60,8837 N 2nd Way,Phoenix,AZ,85020
61,2020 W  Orangewood Ave,Phoenix,AZ,85021
62,5024 E  Thomas Rd,Phoenix,AZ,85018
63,8829 N 6th St,Phoenix,AZ,85020
64,721 W Cheryl Dr,Phoenix,AZ,85021
65,4143 N 27th St,Phoenix,AZ,85016
66,9242 N  7th Ave,Phoenix,AZ,85021
67,5150 N 22nd Ave,Phoenix,AZ,85015
68,14020 N  Black Canyon Hwy  f4f,Phoenix,AZ,85053
69,9606 N 11th Ave,Phoenix,AZ,85021
70,4211 S 3rd St,Phoenix,AZ,85040
71,4130 N 12th St,Phoenix,AZ,85014
72,15605 N 29th St,Phoenix,AZ,85032
73,3131 W  Cochise Dr Unit 107,Phoenix,AZ,85051
74,1103 W Sherman St,Phoenix,AZ,85007
75,1548 W  McKinley St,Phoenix,AZ,85007
76,2230 E Polk St,Phoenix,AZ,85006
77,6702 N  17th Ave,Phoenix,AZ,85015
78,6242 N 27th Ave,Phoenix,AZ,85017
79,2113 N 24th Pl,Phoenix,AZ,85008
80,9647 N 10th Ave,Phoenix,AZ,85021
81,3105 W Van,Phoenix,AZ,85009
82,6310 N Black Canyon Hwy,Phoenix,AZ,85017
83,6310 N Black Canyon Hwy,Phoenix,AZ,85017
84,2310 E Roosevelt St,Phoenix,AZ,85006
85,2700 W  Sahuaro Dr   bcbe1838,Phoenix,AZ,85029
86,4030 N  44th Ave,Phoenix,AZ,85031
87,901 E  Pierce St,Phoenix,AZ,85006
88,1846 E Washington St,Phoenix,AZ,85034
89,425 N  18th Dr,Phoenix,AZ,85007
90,1324 E Taylor St,Phoenix,AZ,85006
91,1153 E Taylor St,Phoenix,AZ,85006
92,1525 W Garfield St,Phoenix,AZ,85007
93,1502 E Adams St,Phoenix,AZ,85034
94,1534 W Fillmore St APT A,Phoenix,AZ,85007
95,1146 E Fillmore St,Phoenix,AZ,85006
96,2025 W  Indian School Rd,Phoenix,AZ,85015
97,2550 W  Hazelwood St -H206,Phoenix,AZ,85017
98,1736 E Brill St,Phoenix,AZ,85006
99,3045 N  67th Ave,Phoenix,AZ,85033
100,525 N 32nd St,Phoenix,AZ,85008
101,2925 N 19th Ave,Phoenix,AZ,85015
102,2417 W  Campbell Ave  Unit 303,Phoenix,AZ,85015
103,4040 W  Peoria Ave,Phoenix,AZ,85029
104,14014 N  32nd St   c05bed1e,Phoenix,AZ,85032
105,536 E  Portland St,Phoenix,AZ,85004
106,3333 W  Dunlap Ave,Phoenix,AZ,85051
107,206 E Jones Ave,Phoenix,AZ,85040
108,9423 N 17th Ave,Phoenix,AZ,85021
109,3333 W  Thunderbird Rd,Phoenix,AZ,85053
110,206 E Jones St,Phoenix,AZ,85040
111,2936 E Indian School Rd,Phoenix,AZ,85016
112,1831 W  Mulberry Dr   Unit 136,Phoenix,AZ,85015
113,3011 N 39th St,Phoenix,AZ,85018
114,4802 N  12th St,Phoenix,AZ,85014
115,15620 N  25th Ave,Phoenix,AZ,85023
116,3426 E Melvin St,Phoenix,AZ,85008
117,1703 W  Mountain View Rd,Phoenix,AZ,85021
118,2502 W Elm St,Phoenix,AZ,85017
119,1225 E  Thomas Rd,Phoenix,AZ,85014
120,2608 W Ocotillo Rd APT B,Phoenix,AZ,85017
121,909 W  Colter St,Phoenix,AZ,85013
122,1517 E  Colter St,Phoenix,AZ,85014
123,602 E Townley Ave,Phoenix,AZ,85020
124,6060 N  7th St,Phoenix,AZ,85014
125,2616 W Pierson St,Phoenix,AZ,85017
126,2620 W Pierson St,Phoenix,AZ,85017
127,815 E  Bethany Home Rd,Phoenix,AZ,85014
128,17425 N  19th Ave,Phoenix,AZ,85023
129,11013 N 16th Ave,Phoenix,AZ,85029
130,903 N 30th St APT D,Phoenix,AZ,85008
131,2510 E Pueblo Ave,Phoenix,AZ,85040
132,8902 N  19th Ave,Phoenix,AZ,85021
133,3535 W  Tierra Buena Ln,Phoenix,AZ,85053
134,3601 E  McDowell Rd,Phoenix,AZ,85008
135,1944 W  Thunderbird Rd,Phoenix,AZ,85023
136,1538 W Peoria Ave,Phoenix,AZ,85029
137,2529 W  Cactus Rd,Phoenix,AZ,85029
138,17031 N  11th Ave,Phoenix,AZ,85023
139,445 W Osborn Rd,Phoenix,AZ,85013
140,3223 W Madison St,Phoenix,AZ,85009
141,1538 W Fillmore St,Phoenix,AZ,85007
142,1834 E Yale St,Phoenix,AZ,85006
143,2139 W Devonshire Ave,Phoenix,AZ,85015
144,2936 N 39th St,Phoenix,AZ,85018
145,746 E Mission Ln,Phoenix,AZ,85020
146,809 E Vogel Ave,Phoenix,AZ,85020
147,5107 N 28th Dr,Phoenix,AZ,85017
148,1809 E Cambridge Ave APT A,Phoenix,AZ,85006
149,2928 E  Osborn Rd   ab6eb5a6,Phoenix,AZ,85016
150,329 N  11th St,Phoenix,AZ,85006
151,11459 N  28th Dr,Phoenix,AZ,85029
152,3535 W  Camelback Rd   c76a,Phoenix,AZ,85019
153,5350 N  17th Ave,Phoenix,AZ,85015
154,12021 N  43rd Ave,Phoenix,AZ,85029
155,2115 W  Devonshire Ave,Phoenix,AZ,85015
156,2347 W Coolidge St,Phoenix,AZ,85015
157,10015 N 9th Ave,Phoenix,AZ,85021
158,1717 W  Missouri Ave,Phoenix,AZ,85015
159,4635 N  27th Ave,Phoenix,AZ,85017
160,3427 N  12th Pl,Phoenix,AZ,85014
161,810 E Colter St,Phoenix,AZ,85014
162,11620 N  17th Dr,Phoenix,AZ,85029
163,6044 N 21st Ave,Phoenix,AZ,85015
164,526 W Highland Ave APT H,Phoenix,AZ,85013
165,2109 W Hayward Ave,Phoenix,AZ,85021
166,2606 E Glenrosa Ave,Phoenix,AZ,85016
167,10001 N  7th St,Phoenix,AZ,85020
168,15615 N  35th Ave,Phoenix,AZ,85053
169,11050 N  Biltmore Dr,Phoenix,AZ,85029
170,9633 N 17th Ave,Phoenix,AZ,85021
171,4235 N  35th Ave,Phoenix,AZ,85017
172,730 E Turney Ave,Phoenix,AZ,85014
173,4707 E  McDowell Rd,Phoenix,AZ,85008
174,205 W Sunland Ave,Phoenix,AZ,85041
175,4811 & 4815 N  15th Ave,Phoenix,AZ,85015
176,2331 E  Pueblo Ave,Phoenix,AZ,85040
177,2539 W  Pierson St,Phoenix,AZ,85017
178,2618 E Turney Ave,Phoenix,AZ,85016
179,2238 E  Taylor St,Phoenix,AZ,85006
180,2525 E  Willetta St,Phoenix,AZ,85008
181,7219 N  35th Ave,Phoenix,AZ,85051
182,770 E Portland St,Phoenix,AZ,85006
183,2412 E Monroe St,Phoenix,AZ,85034
184,10213 N 15th Ave,Phoenix,AZ,85021
185,17 E  Ruth Ave Unit 308,Phoenix,AZ,85020
186,7007 W  Indian School Rd,Phoenix,AZ,85033
187,1901 W Berridge Ln,Phoenix,AZ,85015
188,2838 W Melvin St,Phoenix,AZ,85009
189,2001 W  Union Hills Dr,Phoenix,AZ,85027
190,2936 E  Van Buren St   Unit 10,Phoenix,AZ,85008
191,4902 E  Thomas Rd,Phoenix,AZ,85018
192,2122 W  Butler Dr,Phoenix,AZ,85021
193,6441 W  McDowell Rd,Phoenix,AZ,85035
194,220 N  12th St,Phoenix,AZ,85034
195,1645 E  Thomas Rd,Phoenix,AZ,85016
196,3802 N  27th St   f60ffd18,Phoenix,AZ,85016
197,10227 N  32nd Ln,Phoenix,AZ,85051
198,3202 W  Bell Rd,Phoenix,AZ,85053
199,4341 N  24th St,Phoenix,AZ,85016
200,1414 E  Osborn Rd,Phoenix,AZ,85014
201,2506 W  Dunlap Ave,Phoenix,AZ,85021
202,9652 N  31st Ave,Phoenix,AZ,85051
203,200 W  Monroe St   B,Phoenix,AZ,85003
204,2911 E  Indian School Rd,Phoenix,AZ,85016
205,1325 N 30th Dr,Phoenix,AZ,85009
206,7725 W  McDowell Rd,Phoenix,AZ,85035
207,4306 N 12th St,Phoenix,AZ,85014
208,1814 W Carol Ave,Phoenix,AZ,85021
209,3434 E  McDowell Rd   ccef1e,Phoenix,AZ,85008
210,622 N  9th Ave,Phoenix,AZ,85007
211,2660 N 43rd Ave,Phoenix,AZ,85009
212,18202 N Cave Creek Rd,Phoenix,AZ,85032
213,1609 W Latham St,Phoenix,AZ,85007
214,102 E Hatcher Rd,Phoenix,AZ,85020
215,2242 W Morten Ave,Phoenix,AZ,85021
216,1545 W  Roosevelt St,Phoenix,AZ,85007
217,1802 N  26th Pl,Phoenix,AZ,85008
218,3001 N  36th St,Phoenix,AZ,85018
219,4802 N  19th Ave,Phoenix,AZ,85015
220,6131 W  Thomas Rd   bd0,Phoenix,AZ,85033
221,5601 W  McDowell Rd   facd3f7,Phoenix,AZ,85035
222,2140 W  Thunderbird Rd,Phoenix,AZ,85023
223,1623 W Missouri Ave,Phoenix,AZ,85015
224,2302 N  27th St,Phoenix,AZ,85008
225,2133 W Morten Ave,Phoenix,AZ,85021
226,5008 E  Thomas Rd,Phoenix,AZ,85018
227,919 N  20th St,Phoenix,AZ,85006
228,9410 N  31st Ave,Phoenix,AZ,85051
229,2222 W  Beardsley Rd,Phoenix,AZ,85027
230,45 E Lexington Ave,Phoenix,AZ,85012
231,2942 E Indian School Rd,Phoenix,AZ,85016
232,17249 N  7th St,Phoenix,AZ,85022
233,1833 E Harvard St,Phoenix,AZ,85006
234,5225 E  Thomas Rd,Phoenix,AZ,85018
235,1450 E  Bell Rd,Phoenix,AZ,85022
236,2004 N 24th St,Phoenix,AZ,85008
237,9502 N 2nd Pl,Phoenix,AZ,85020
238,2535 W Highland Ave,Phoenix,AZ,85017
239,2408 W Morten Ave,Phoenix,AZ,85021
240,1529 E McKinley St,Phoenix,AZ,85006
241,1707 N  18th St,Phoenix,AZ,85006
242,2123 W Devonshire Ave,Phoenix,AZ,85015
243,2123 W Devonshire Ave,Phoenix,AZ,85015
244,7130 N 27th Ave,Phoenix,AZ,85051
245,3646 N  67th Ave Unit 96,Phoenix,AZ,85033
246,1017 N 28th St,Phoenix,AZ,85008
247,4435 N  8th Ave,Phoenix,AZ,85013
248,1725 W  Vogel Ave,Phoenix,AZ,85021
249,4117 N 15th Ave,Phoenix,AZ,85015
250,2936 N  34th Pl,Phoenix,AZ,85018
251,8910 N 3rd St,Phoenix,AZ,85020
252,6320 N  16th St,Phoenix,AZ,85016
253,21420 N  23rd Ave,Phoenix,AZ,85027
254,6805 N 27th Ave,Phoenix,AZ,85017
255,4301 N  24th St,Phoenix,AZ,85016
256,7045 N  7th St,Phoenix,AZ,85020
257,4332 N Longview Ave,Phoenix,AZ,85014
258,8910 N 3rd St,Phoenix,AZ,85020
259,1010 N  48th St,Phoenix,AZ,85008
260,1514 W Palmer Dr,Phoenix,AZ,85021
261,12440 N  19th Ave,Phoenix,AZ,85029
262,6231 W  McDowell Rd   a1b9d,Phoenix,AZ,85035
263,8400 W  Virginia Ave,Phoenix,AZ,85037
264,17216 N  33rd Ave,Phoenix,AZ,85053
265,5632 S Montezuma St,Phoenix,AZ,85041
266,1630 W Garfield St,Phoenix,AZ,85007
267,2846 E Kathleen Rd,Phoenix,AZ,85032
268,6201 N 23rd Ave,Phoenix,AZ,85015
269,2845 E  Grandview Rd,Phoenix,AZ,85032
270,3434 E  Baseline Rd Unit 121,Phoenix,AZ,85042
271,4224 S 24th St,Phoenix,AZ,85040
272,1119 E Eva St APT B,Phoenix,AZ,85020
273,1107 E Eva St,Phoenix,AZ,85020
274,2041 W Berridge Ln,Phoenix,AZ,85015
275,9201 N  12th St,Phoenix,AZ,85020
276,4126 N 22nd St,Phoenix,AZ,85016
277,811 E Carol Ave,Phoenix,AZ,85020
278,137 E  Coronado Rd,Phoenix,AZ,85004
279,3211 E  Pinchot Ave,Phoenix,AZ,85018
280,5704 W  Thomas Rd,Phoenix,AZ,85031
281,5775 W  Roosevelt St   ea3e462,Phoenix,AZ,85043
282,801 W  Turney Ave  a5b56,Phoenix,AZ,85013
283,362 E  Monte Vista St   fbdb38,Phoenix,AZ,85004
284,2233 N  36th St   a59a,Phoenix,AZ,85008
285,345 W  Pasadena Ave,Phoenix,AZ,85013
286,10851 N  43rd Ave,Phoenix,AZ,85029
287,1814 W Carol Ave APT A,Phoenix,AZ,85021
288,4520 E  Baseline Rd,Phoenix,AZ,85042
289,1333 N  24th St,Phoenix,AZ,85008
290,3915 E  Camelback Rd,Phoenix,AZ,85018
291,8245 N  27th Ave,Phoenix,AZ,85051
292,4201 W Lamar Rd,Phoenix,AZ,85019
293,15434 N  32nd St,Phoenix,AZ,85032
294,355 N  Central Ave,Phoenix,AZ,85004
295,2636 N  41st Ave  eca96,Phoenix,AZ,85009
296,2323 W  Dunlap Ave,Phoenix,AZ,85021
297,19940 N  23rd Ave,Phoenix,AZ,85027
298,6405 W  McDowell Rd,Phoenix,AZ,85035
299,2662 N 43rd Ave,Phoenix,AZ,85009
300,4401 N 23rd Ave,Phoenix,AZ,85015
301,1614 W Purdue Ave,Phoenix,AZ,85021
302,1350 E  Northern Ave,Phoenix,AZ,85020
303,2645 E  Cactus Rd,Phoenix,AZ,85032
304,3040 E  Shea Blvd,Phoenix,AZ,85028
305,355 W Tonto St,Phoenix,AZ,85003
306,2747 E Chipman Rd,Phoenix,AZ,85040
307,2922 N 35th St,Phoenix,AZ,85018
308,1019 W Woodland Ave,Phoenix,AZ,85007
309,4332 N  21st St,Phoenix,AZ,85016
310,1810 N 16th St,Phoenix,AZ,85006
311,6131 N  16th St   ac6e2dbb,Phoenix,AZ,85016
312,2015 W  Cactus Rd,Phoenix,AZ,85029
313,3219 E  Earll Dr,Phoenix,AZ,85018
314,3413 E Earll Dr,Phoenix,AZ,85018
315,1313 E Carol Ave,Phoenix,AZ,85020
316,17646 N  Cave Creek Rd   f148f,Phoenix,AZ,85032
317,12231 N  19th St,Phoenix,AZ,85022
318,645 W  Hazelwood St,Phoenix,AZ,85013
319,123 W Missouri Ave,Phoenix,AZ,85013
320,921 E Dunlap Ave,Phoenix,AZ,85020
321,1829 E  Morten Ave,Phoenix,AZ,85020
322,521 E Mariposa St,Phoenix,AZ,85012
323,1701 W Vogel Ave,Phoenix,AZ,85021
324,1502 E  Osborn Rd,Phoenix,AZ,85014
325,17602 N  Cave Creek Rd   aa9f5,Phoenix,AZ,85032
326,4728 N  15th St   faf088c3,Phoenix,AZ,85014
327,77 W  Coolidge St,Phoenix,AZ,85013
328,2929 W  Yorkshire Dr Unit 1070,Phoenix,AZ,85027
329,608 N 9th St,Phoenix,AZ,85006
330,,Phoenix,AZ,85003
331,3308 W Loma Ln,Phoenix,AZ,85051
332,3010 W  Yorkshire Dr   f6030f9c,Phoenix,AZ,85027
333,3623 N  5th Ave  2,Phoenix,AZ,85013
334,1321 W Sahuaro Dr,Phoenix,AZ,85029
335,1411 N 33rd St,Phoenix,AZ,85008
336,4225 N  12th St,Phoenix,AZ,85014
337,3131 N  Black Canyon Hwy,Phoenix,AZ,85015
338,3031 N  36th St,Phoenix,AZ,85018
339,3208 E Flower St,Phoenix,AZ,85018
340,626 N  5th Ave,Phoenix,AZ,85003
341,2133 W Turney Ave,Phoenix,AZ,85015
342,18416 N  Cave Creek Rd,Phoenix,AZ,85032
343,1233 W Pierce St,Phoenix,AZ,85007
344,1942 W  Berridge Ln,Phoenix,AZ,85015
345,9644 N 11th Ave,Phoenix,AZ,85021
346,1503 W  Missouri Ave,Phoenix,AZ,85015
347,4830 E Willetta St,Phoenix,AZ,85008
348,2602 N 46th St,Phoenix,AZ,85008
349,3511 E  Baseline Rd Unit 1026,Phoenix,AZ,85042
350,2617 E Campbell Ave,Phoenix,AZ,85016
351,2625 E  Indian School Rd Unit 115,Phoenix,AZ,85016
352,834 N  13th Ave,Phoenix,AZ,85007
353,17840 N  Black Canyon Hwy UCMXG,Phoenix,AZ,85053
354,1601 W  Missouri Ave  f1f43,Phoenix,AZ,85015
355,349 N  11th St,Phoenix,AZ,85006
356,4618 N 12th Pl,Phoenix,AZ,85014
357,2832 E Monte Cristo Ave,Phoenix,AZ,85032
358,2832 E Monte Cristo Ave,Phoenix,AZ,85032
359,4719 N 15th Ave,Phoenix,AZ,85015
360,4301 S  7th Ave,Phoenix,AZ,85041
361,1913 N 25th Pl APT C,Phoenix,AZ,85008
362,510 E Hatcher Rd,Phoenix,AZ,85020
363,825 E Marlette Ave,Phoenix,AZ,85014
364,2202 E Taylor St,Phoenix,AZ,85006
365,2744 E Tierra Buena Ln,Phoenix,AZ,85032
366,1419 E Hatcher Rd,Phoenix,AZ,85020
367,1522 E Pierce St,Phoenix,AZ,85006
368,1146 E Diamond St,Phoenix,AZ,85006
369,2950 N 46th St,Phoenix,AZ,85018
370,4514 N  20th St,Phoenix,AZ,85016
371,3325 E Pinchot Ave,Phoenix,AZ,85018
372,1629 W Fillmore St,Phoenix,AZ,85007
373,2323 E  Flower St,Phoenix,AZ,85016
374,3201 N 36th St,Phoenix,AZ,85018
375,2525 Pearson St   b863d,Phoenix,AZ,85017
376,1934 E Fairmount Ave,Phoenix,AZ,85016
377,6217 N 12th St UNIT B,Phoenix,AZ,85014
378,3363 W Harmont Dr,Phoenix,AZ,85051
379,10648 N 15th Ave,Phoenix,AZ,85029
380,13635 N 23rd Ave,Phoenix,AZ,85029
381,2333 W Glenrosa Ave SUITE 117,Phoenix,AZ,85015
382,5019 N 22nd Ave,Phoenix,AZ,85015
383,610 N 4th Ave,Phoenix,AZ,85003
384,3245 W Jefferson St,Phoenix,AZ,85009
385,729 W Coolidge St,Phoenix,AZ,85013
386,2980 W Foothill Dr,Phoenix,AZ,85027
387,13235 N 21st Pl,Phoenix,AZ,85022
388,6902 E Chauncey Ln,Phoenix,AZ,85054
389,1321 W Vogel Ave,Phoenix,AZ,85021
390,1123 W Fillmore St,Phoenix,AZ,85007
391,,Phoenix,AZ,85020
392,408 W Earll Dr,Phoenix,AZ,85013
393,1632 E  Cambridge Ave,Phoenix,AZ,85006
394,3815 N  16th St   b99,Phoenix,AZ,85016
395,2414 W Devonshire Ave,Phoenix,AZ,85015
396,4025 N  40th St,Phoenix,AZ,85018
397,725 W Vogel Ave,Phoenix,AZ,85021
398,2420 W  Glenrosa Ave,Phoenix,AZ,85015
399,5112 N 28th Dr,Phoenix,AZ,85017
400,1510 E Pierce St,Phoenix,AZ,85006
401,5300 E  Washington St Unit 3408,Phoenix,AZ,85034
402,15202 N  40th St,Phoenix,AZ,85032
403,3816 N  83rd Ave,Phoenix,AZ,85033
404,411 E  Indian School Rd,Phoenix,AZ,85012
405,6025 W  Thomas Rd,Phoenix,AZ,85033
406,17239 N  19th Ave,Phoenix,AZ,85023
407,121 W  Portland St,Phoenix,AZ,85003
408,2220 E  Beardsley Rd,Phoenix,AZ,85024
409,1321 W Sahuaro Dr,Phoenix,AZ,85029
410,5615 N  7th St,Phoenix,AZ,85014
411,3633 N  6th Ave,Phoenix,AZ,85013
412,4225 E  McDowell Rd,Phoenix,AZ,85008
413,328 E Willetta St,Phoenix,AZ,85004
414,6202 N  16th St,Phoenix,AZ,85016
415,1013 W Indian School Rd APT B,Phoenix,AZ,85013
416,2843 E Monte Cristo Ave,Phoenix,AZ,85032
417,1827 W Tuckey Ln,Phoenix,AZ,85015
418,4308 N Longview Ave,Phoenix,AZ,85014
419,330 E  Pierce St,Phoenix,AZ,85004
420,17617 N  9th St,Phoenix,AZ,85022
421,8809 S  Pointe Pkwy E,Phoenix,AZ,85044
422,4820 N 89th Ave,Phoenix,AZ,85037
423,302 E  Monte Vista Rd,Phoenix,AZ,85004
424,1246 E Weldon Ave,Phoenix,AZ,85014
425,1509 W Pierce St,Phoenix,AZ,85007
426,1220 E Medlock Dr,Phoenix,AZ,85014
427,1819 E Sheridan St,Phoenix,AZ,85006
428,1921 E  Virginia Ave,Phoenix,AZ,85006
429,1702 W  Tuckey Ln Unit 232,Phoenix,AZ,85015
430,2726 E  Culver St -B,Phoenix,AZ,85008
431,18416 N Cave Creek Rd,Phoenix,AZ,85032
432,2228 N  52nd St Unit 107,Phoenix,AZ,85008
433,10802 N 16th Ave,Phoenix,AZ,85029
434,3415 E Earll Dr APT F,Phoenix,AZ,85018
435,2521 N  11th St,Phoenix,AZ,85006
436,1832 E  Harvard St,Phoenix,AZ,85006
437,633 N 6th Ave,Phoenix,AZ,85003
438,2532 N 49th St,Phoenix,AZ,85008
439,8241 N 34th Dr,Phoenix,AZ,85051
440,7557 N Dreamy Draw Dr,Phoenix,AZ,85020
441,1915 N 26th Pl,Phoenix,AZ,85008
442,1606 W Taylor St,Phoenix,AZ,85007
443,147 W McDowell Rd,Phoenix,AZ,85003
444,3320 W Northern Ave,Phoenix,AZ,85051
445,2006 N  51st St,Phoenix,AZ,85008
446,1041 E Whitton Ave,Phoenix,AZ,85014
447,120 W  Dobbins Rd,Phoenix,AZ,85041
448,2104 E Eugie Ter,Phoenix,AZ,85022
449,1904 E Maryland Ave,Phoenix,AZ,85016
450,3101 W  Melvin St,Phoenix,AZ,85009
451,818 N 39th Ave,Phoenix,AZ,85009
452,4444 E  Paradise Village Pkwy N  Unit 123,Phoenix,AZ,85032
453,1301 & 1307 E Vista Ave,Phoenix,AZ,85020
454,3029 E Paradise Ln,Phoenix,AZ,85032
455,20244 N  31st Ave,Phoenix,AZ,85027
456,14221 N  51st Ave  -R,Glendale,AZ,85306
457,2252 N  44th St,Phoenix,AZ,85008
458,4221 W  Dunlap Ave,Phoenix,AZ,85051
459,2020 W  Glendale Ave,Phoenix,AZ,85021
460,800 N  Central Ave,Phoenix,AZ,85004
461,2234 W  Hazelwood St,Phoenix,AZ,85015
462,1301 E  Mountain View Rd Unit 220,Phoenix,AZ,85020
463,16630 N  43rd Ave  cc34,Glendale,AZ,85306
464,7124 W Wolf St,Phoenix,AZ,85033
465,10610 S  48th St Unit 2047,Phoenix,AZ,85044
466,10839 N 15th Ave,Phoenix,AZ,85029
467,1108 S 33rd Ave,Phoenix,AZ,85009
468,1803 N 31st Pl,Phoenix,AZ,85008
469,3802 E  Baseline Rd,Phoenix,AZ,85042
470,111 N  Dupont Cir  Unit 305,Phoenix,AZ,85034
471,333 E  McKinley St,Phoenix,AZ,85004
472,3011 N 38th St,Phoenix,AZ,85018
473,1313 W Osborn Rd,Phoenix,AZ,85013
474,20401 N  19th Ave,Phoenix,AZ,85027
475,2034 W Cactus Rd UNIT D,Phoenix,AZ,85029
476,5401 E  Thomas Rd   Unit 1027,Phoenix,AZ,85018
477,1437 E Diamond St,Phoenix,AZ,85006
478,3875 W  Dobbins Rd,Laveen,AZ,85339
479,3002 E McKinley St,Phoenix,AZ,85008
480,3302 N  7th St Unit 305,Phoenix,AZ,85014
481,222 W  Clarendon Ave,Phoenix,AZ,85013
482,4950 E  Van Buren St,Phoenix,AZ,85008
483,11221 S  51st St,Phoenix,AZ,85044
484,1621 W  Denton Ln,Phoenix,AZ,85015
485,11025 S  51st St,Phoenix,AZ,85044
486,1545 W  Denton Ln,Phoenix,AZ,85015
487,34807 N  32nd Dr,Phoenix,AZ,85086
488,6515 W  McDowell Rd,Phoenix,AZ,85035
489,1640 W  Ocotillo Rd,Phoenix,AZ,85015
490,4312 N  12th St,Phoenix,AZ,85014
491,2530 N  3rd St,Phoenix,AZ,85004
492,3230 E Pinchot Ave,Phoenix,AZ,85018
493,18811 N  19th Ave,Phoenix,AZ,85027
494,5401 E  Van Buren St Unit 2055,Phoenix,AZ,85008
495,1822 N  32nd St,Phoenix,AZ,85008
496,602 N 16th St,Phoenix,AZ,85006
497,715 N 12th Ave,Phoenix,AZ,85007
498,320 W Earll Dr,Phoenix,AZ,85013
499,21 W Tonto St,Phoenix,AZ,85003
500,3001 N 22nd St,Phoenix,AZ,85016
501,10807 N 15th Ln,Phoenix,AZ,85029
502,3021 N 22nd St,Phoenix,AZ,85016
503,4120 N  21st St,Phoenix,AZ,85016
504,1102 W Cheryl Dr,Phoenix,AZ,85021
505,1826 N  51st St,Phoenix,AZ,85008
506,70 E Mitchell Dr,Phoenix,AZ,85012
507,1552 W Mercer Ln,Phoenix,AZ,85029
508,617 W Jones Ave,Phoenix,AZ,85041
509,4933 E Willetta St,Phoenix,AZ,85008
510,2939 N  36th St,Phoenix,AZ,85018
511,4405 N  103rd Ave  e4179ad4,Phoenix,AZ,85037
512,4446 N  36th St,Phoenix,AZ,85018
513,2730 E Belleview St,Phoenix,AZ,85008
514,321 W Pasadena Ave,Phoenix,AZ,85013
515,16821 N 26th St,Phoenix,AZ,85032
516,2525 N 52nd St,Phoenix,AZ,85008
517,3550 E  Campbell Ave,Phoenix,AZ,85018
518,1401 N  3rd St,Phoenix,AZ,85004
519,1240 W Dunlap Ave,Phoenix,AZ,85021
520,2539 N  48th St,Phoenix,AZ,85008
521,4248 N 12th St,Phoenix,AZ,85014
522,4220 N 25th St,Phoenix,AZ,85016
523,1131 N 40th St APT B,Phoenix,AZ,85008
524,6161 W  McDowell Rd,Phoenix,AZ,85035
525,1524 W Sahuaro Dr APT A,Phoenix,AZ,85029
526,3435 W Danbury Dr,Phoenix,AZ,85053
527,4384 N 103rd Ave,Phoenix,AZ,85037
528,5502 N  27th Ave,Phoenix,AZ,85017
529,5207 E Windsor Ave,Phoenix,AZ,85008
530,2845 E Kathleen Rd,Phoenix,AZ,85032
531,7750 N  12th St,Phoenix,AZ,85020
532,15645 N  35th Ave  dd9ee72,Phoenix,AZ,85053
533,5353 E  Washington St,Phoenix,AZ,85034
534,888 N  4th St,Phoenix,AZ,85004
535,631 N 4th Ave,Phoenix,AZ,85003
536,1914 W  Hayward Ave,Phoenix,AZ,85021
537,2416 W Augusta Cir,Phoenix,AZ,85021
538,1422 N  5th St,Phoenix,AZ,85004
539,1340 E  Highland Ave,Phoenix,AZ,85014
540,320 W  Pasadena Ave,Phoenix,AZ,85013
541,317 W McDowell Rd,Phoenix,AZ,85003
542,3830 E  Lakewood Pkwy E,Phoenix,AZ,85048
543,12440 N  20th St,Phoenix,AZ,85022
544,21250 N 23rd Ave,Phoenix,AZ,85027
545,9420 N 35th Pl,Phoenix,AZ,85028
546,5022 N  17th Ave,Phoenix,AZ,85015
547,1841 E Harvard St,Phoenix,AZ,85006
548,1533 W Missouri Ave,Phoenix,AZ,85015
549,4224 N 12th St,Phoenix,AZ,85014
550,18233 N 13th Pl,Phoenix,AZ,85022
551,2245 N 28th St,Phoenix,AZ,85008
552,1701 N 18th St,Phoenix,AZ,85006
553,10044 N 18th Ave,Phoenix,AZ,85021
554,2409 W Campbell Ave,Phoenix,AZ,85015
555,749 E Montebello Ave,Phoenix,AZ,85014
556,550 E Earll Dr,Phoenix,AZ,85012
557,1801 N  83rd Ave  d0f3cb3,Phoenix,AZ,85035
558,7021 W  McDowell Rd   beb338b,Phoenix,AZ,85035
559,1701 E  Cambridge Ave,Phoenix,AZ,85006
560,1920 W Berridge Ln,Phoenix,AZ,85015
561,2425 W Turney Ave APT I,Phoenix,AZ,85015
562,335 E Purdue Ave,Phoenix,AZ,85020
563,9837 N 11th Ave,Phoenix,AZ,85021
564,1646 E McKinley St,Phoenix,AZ,85006
565,5222 E Windsor Ave,Phoenix,AZ,85008
566,3033 E  Thunderbird Rd,Phoenix,AZ,85032
567,13021 S  48th St,Phoenix,AZ,85044
568,31113 N  Valley Pkwy,Phoenix,AZ,85085
569,411 S  3rd St,Phoenix,AZ,85004
570,4626 N  16th St,Phoenix,AZ,85016
571,4221 E  Ray Rd,Phoenix,AZ,85044
572,4411 E  Chandler Blvd,Phoenix,AZ,85048
573,2311 E  Union Hills Dr,Phoenix,AZ,85024
574,15815 S  Lakewood Pkwy W,Phoenix,AZ,85048
575,3777 E  McDowell Rd,Phoenix,AZ,85008
576,13220 S  48th St,Phoenix,AZ,85044
577,16220 N  7th St,Phoenix,AZ,85022
578,14625 S  Mountain Pkwy,Phoenix,AZ,85044
579,4315 E  Thunderbird Rd,Phoenix,AZ,85032
580,2040 W Berridge Ln,Phoenix,AZ,85015
581,342 W Culver St,Phoenix,AZ,85003
582,2012 W Maricopa St,Phoenix,AZ,85009
583,2512 E  Thomas Rd Unit 1,Phoenix,AZ,85016
584,3848 N  3rd Ave Unit 3090,Phoenix,AZ,85013
585,5345 E  Van Buren St,Phoenix,AZ,85008
586,4530 E  McDowell Rd,Phoenix,AZ,85008
587,9031 W Elm St,Phoenix,AZ,85037
588,4722 E  Bell Rd,Phoenix,AZ,85032
589,110 E  Greenway Pkwy,Phoenix,AZ,85022
590,600 N  4th St,Phoenix,AZ,85004
591,2240 E Roosevelt St,Phoenix,AZ,85006
592,2240 E Roosevelt St,Phoenix,AZ,85006
593,4221 N 20th St,Phoenix,AZ,85016
594,9999 W  Missouri Ave,Glendale,AZ,85307
595,4602 E  Paradise Village Pkwy N,Phoenix,AZ,85032
596,4350 N  5th Ave Unit 310,Phoenix,AZ,85013
597,3416 N 44th St,Phoenix,AZ,85018
598,4109 E Moreland St,Phoenix,AZ,85008
599,2609 W  McLellan Blvd Unit 3,Phoenix,AZ,85017
600,4128 N 10th St,Phoenix,AZ,85014
601,301 W Turney Ave,Phoenix,AZ,85013
602,2930 N  52nd St,Phoenix,AZ,85018
603,818 N 7th St,Phoenix,AZ,85006
604,3828 N 32nd St,Phoenix,AZ,85018
605,1320 N 48th Pl,Phoenix,AZ,85008
606,5110 N  21st Ave,Phoenix,AZ,85015
607,1413 S 9th St,Phoenix,AZ,85034
608,1442 E Polk St APT F,Phoenix,AZ,85006
609,2302 N  29th St,Phoenix,AZ,85008
610,5525 E  Thomas Rd,Phoenix,AZ,85018
611,1301 W  McDowell Rd,Phoenix,AZ,85007
612,1331 E Vista Ave,Phoenix,AZ,85020
613,1329 E Cinnabar Ave,Phoenix,AZ,85020
614,21626 N 23rd Ave,Phoenix,AZ,85027
615,3319 N  32nd St,Phoenix,AZ,85018
616,1402 E Pierce St UNIT A,Phoenix,AZ,85006
617,2135 W Hadley St,Phoenix,AZ,85009
618,80 W  Maryland Ave,Phoenix,AZ,85013
619,526 W Roosevelt St,Phoenix,AZ,85003
620,3615 E Coronado Rd,Phoenix,AZ,85008
621,7625 N  19th Ave  c48f05,Phoenix,AZ,85021
622,844 W Hazelwood St,Phoenix,AZ,85013
623,825 & 835 E  Marlette Ave,Phoenix,AZ,85014
624,3818 E Earll Dr,Phoenix,AZ,85018
625,2216 E  Eugie Ter,Phoenix,AZ,85022
626,31 E  Thomas Rd,Phoenix,AZ,85012
627,32615 N  Valley Pkwy,Phoenix,AZ,85085
628,732 W Southgate Ave,Phoenix,AZ,85041
629,17017 N  12th St Unit 2120,Phoenix,AZ,85022
630,4801 E Willetta St,Phoenix,AZ,85008
631,2545 N  83rd Ave,Phoenix,AZ,85035
632,2220 W  Mission Ln,Phoenix,AZ,85021
633,1499 N 53rd Ave,Phoenix,AZ,85043
634,13229 S  48th St 2052,Phoenix,AZ,85044
635,15251 S  50th St,Phoenix,AZ,85044
636,3625 E  Ray Rd,Phoenix,AZ,85044
637,4201 N  20th St   Unit 218,Phoenix,AZ,85016
638,1601 W Sunnyside Dr,Phoenix,AZ,85029
639,3236 E  Chandler Blvd Unit 3094,Phoenix,AZ,85048
640,721 E Sierra Vista Dr,Phoenix,AZ,85014
641,3323 W Monroe St,Phoenix,AZ,85009
642,1630 E  Baseline Rd,Phoenix,AZ,85042
643,2323 E  Highland Ave,Phoenix,AZ,85016
644,2936 N  30th St,Phoenix,AZ,85016
645,11 E  Bell Rd,Phoenix,AZ,85022
646,4422 N 36th St,Phoenix,AZ,85018
647,4650 N  Central Ave  Unit 272,Phoenix,AZ,85012
648,8550 W  McDowell Rd,Phoenix,AZ,85037
649,1121 N  44th St,Phoenix,AZ,85008
650,2519 E Thomas Rd,Phoenix,AZ,85016
651,2612 E Thomas Rd,Phoenix,AZ,85016
652,13601 S  44th St,Phoenix,AZ,85044
653,4331 N  26th St,Phoenix,AZ,85016
654,3845 E Greenway Rd,Phoenix,AZ,85032
655,4232 N 32nd St,Phoenix,AZ,85018
656,2417 E Campbell Ave,Phoenix,AZ,85016
657,3120 N 67th Ln,Phoenix,AZ,85033
658,214 E  Ruth Ave Unit 209,Phoenix,AZ,85020
659,234 E Ruth Ave,Phoenix,AZ,85020
660,3415 N 11th Ave,Phoenix,AZ,85013
661,1043 E Butler Dr APT D,Phoenix,AZ,85020
662,821 N 4th Ave,Phoenix,AZ,85003
663,2644 E Paradise Ln APT C,Phoenix,AZ,85032
664,2625 E  Turney Ave,Phoenix,AZ,85016
665,8122 N 33rd Ave,Phoenix,AZ,85051
666,16816 N 29th St,Phoenix,AZ,85032
667,4333 N  6th Dr,Phoenix,AZ,85013
668,2940 N  40th St,Phoenix,AZ,85018
669,6817 N 17th Ave,Phoenix,AZ,85015
670,17805 N  40th St,Phoenix,AZ,85032
671,7553 N 21st Ave,Phoenix,AZ,85021
672,1722 E Ocotillo Rd,Phoenix,AZ,85016
673,820 E Maryland Ave,Phoenix,AZ,85014
674,2921 N 38th St,Phoenix,AZ,85018
675,2542 N 46th St,Phoenix,AZ,85008
676,2404 W Orangewood Ave,Phoenix,AZ,85021
677,4325 N 21st Dr,Phoenix,AZ,85015
678,16013 S  Desert Foothills Pkwy,Phoenix,AZ,85048
679,2540 W Campbell Ave,Phoenix,AZ,85017
680,2834 E Beck Ln,Phoenix,AZ,85032
681,1518 W  Colter St,Phoenix,AZ,85015
682,241 E Elwood St,Phoenix,AZ,85040
683,2241 W Campbell Ave,Phoenix,AZ,85015
684,125 N  18th St,Phoenix,AZ,85034
685,3400 E  Southern Ave,Phoenix,AZ,85040
686,3311 E Cambridge Ave,Phoenix,AZ,85008
687,7732 N  27th Ave,Phoenix,AZ,85051
688,1701 E Colter St,Phoenix,AZ,85016
689,1339 E Thomas Rd,Phoenix,AZ,85014
690,2228 E  Campbell Ave,Phoenix,AZ,85016
691,9439 N 11th Ave,Phoenix,AZ,85021
692,1017 E Turney Ave,Phoenix,AZ,85014
693,1017 E Turney Ave,Phoenix,AZ,85014
694,2049 W Hayward Ave,Phoenix,AZ,85021
695,18202 N Cave Creek Rd,Phoenix,AZ,85032
696,1049 E Fairmount Ave,Phoenix,AZ,85014
697,6528 N 17th Ave,Phoenix,AZ,85015
698,2926 N 16th St,Phoenix,AZ,85016
699,8130 W  Indian School Rd,Phoenix,AZ,85033
700,3658 N 5th Ave NW,Phoenix,AZ,85013
701,19601 N  7th St Unit 2092,Phoenix,AZ,85024
702,1452 E Cinnabar Ave,Phoenix,AZ,85020
703,9950 W  Indian School Rd Unit 12,Phoenix,AZ,85037
704,4502 E  Paradise Village Pkwy S,Phoenix,AZ,85032
705,2155 E  Liberty Ln,Phoenix,AZ,85048
706,5421 W  Indian School Rd,Phoenix,AZ,85031
707,18660 N  Cave Creek Rd,Phoenix,AZ,85024
708,19635 N  Cave Creek Rd,Phoenix,AZ,85024
709,20808 N  27th Ave,Phoenix,AZ,85027
710,817 N  6th St,Phoenix,AZ,85004
711,24250 N  23rd Ave  Unit 3069,Phoenix,AZ,85085
712,888 E  Clinton St,Phoenix,AZ,85020
713,1616 N  Central Ave,Phoenix,AZ,85004
714,6848 N  10th Pl,Phoenix,AZ,85014
715,3311 N 18th St,Phoenix,AZ,85016
716,1130 E  Butler Dr,Phoenix,AZ,85020
717,26800 N  27th Ave,Phoenix,AZ,85085
718,1130 E Grovers Ave,Phoenix,AZ,85022
719,5010 E  Cheyenne Dr,Phoenix,AZ,85044
720,16636 N  58th St,Scottsdale,AZ,85254
721,1601 E  Highland Ave,Phoenix,AZ,85016
722,400 E  Earll Dr,Phoenix,AZ,85012
723,4727 E  Warner Rd,Phoenix,AZ,85044
724,13616 N  43rd St,Phoenix,AZ,85032
725,100 W  Indian School Rd,Phoenix,AZ,85013
726,1505 N  Central Ave,Phoenix,AZ,85004
727,4140 N  Central Ave,Phoenix,AZ,85012
728,1550 E  Campbell Ave,Phoenix,AZ,85014
729,601 N  3rd Ave,Phoenix,AZ,85003
730,1815 W Colter St,Phoenix,AZ,85015
731,4410 N  99th Ave,Phoenix,AZ,85037
732,901 E  Van Buren St,Phoenix,AZ,85006
733,1720 E  Thunderbird Rd Unit 1100,Phoenix,AZ,85022
734,4554 E  Paradise Village Pkwy N  Unit 263,Phoenix,AZ,85032
735,19820 N  13th Ave Unit 220,Phoenix,AZ,85027
736,6900 E  Princess Dr Unit 1161,Phoenix,AZ,85054
737,2122 W Augusta Ave,Phoenix,AZ,85021
738,740 W  Elm St Unit 240,Phoenix,AZ,85013
739,810 W Maryland Ave APT B,Phoenix,AZ,85013
740,338 E  Vogel Ave,Phoenix,AZ,85020
741,1536 W Mulberry Dr APT B,Phoenix,AZ,85015
742,825 E Missouri Ave,Phoenix,AZ,85014
743,3825 E  Camelback Rd Unit 153,Phoenix,AZ,85018
744,886 N  Cofco Center Ct,Phoenix,AZ,85008
745,9000 W  Indian School Rd   c498dec,Phoenix,AZ,85037
746,5115 N 12th St,Phoenix,AZ,85014
747,2726 E Beck Ln,Phoenix,AZ,85032
748,20245 N  32nd Dr,Phoenix,AZ,85027
749,2101 W Colter St,Phoenix,AZ,85015
750,5113 & 5123 N 17th Ave,Phoenix,AZ,85015
751,1801 N 50th St,Phoenix,AZ,85008
752,1609 W  Glendale Ave,Phoenix,AZ,85015
753,5402 E  Washington St,Phoenix,AZ,85034
754,14435 S  48th St,Phoenix,AZ,85044
755,3101 N 36th St,Phoenix,AZ,85018
756,,Phoenix,AZ,85013
757,909 E  Camelback Rd Unit 2118,Phoenix,AZ,85014
758,12211 N  Paradise Village Pkwy,Phoenix,AZ,85032
759,8824 N 8th St,Phoenix,AZ,85020
760,28201 N  Black Canyon Hwy,Phoenix,AZ,85085
761,4238 N 17th St,Phoenix,AZ,85016
762,16635 N Cave Creek Rd,Phoenix,AZ,85032
763,1525 W Osborn Rd,Phoenix,AZ,85015
764,1146 W Apache St,Phoenix,AZ,85007
765,1615 E  Georgia Ave,Phoenix,AZ,85016
766,18220 N  68th St,Phoenix,AZ,85054
767,13625 S  48th St,Phoenix,AZ,85044
768,5611 S  32nd St,Phoenix,AZ,85040
769,732 E Pierce St,Phoenix,AZ,85006
770,,Phoenix,AZ,85012
771,3223 N  Algodon Way,Phoenix,AZ,85037
772,6751 W  Indian School Rd,Phoenix,AZ,85033
773,4001 N  Central Ave,Phoenix,AZ,85012
774,330 E  Roosevelt St,Phoenix,AZ,85004
775,1920 E  Indian School Rd,Phoenix,AZ,85016
776,6501 N 3rd Ave,Phoenix,AZ,85013
777,3441 N 37th St,Phoenix,AZ,85018
778,1301 E Thomas Rd,Phoenix,AZ,85014
779,936 W Mountain View Rd,Phoenix,AZ,85021
780,3109 N  36th St,Phoenix,AZ,85018
781,535 W  Thomas Rd,Phoenix,AZ,85013
782,2912 E Granada Rd,Phoenix,AZ,85008
783,3125 N 37th St,Phoenix,AZ,85018
784,1718 E  Campbell Ave,Phoenix,AZ,85016
785,925 W Peoria Ave,Phoenix,AZ,85029
786,3120 E  Paradise Ln Unit 1,Phoenix,AZ,85032
787,5008 E Oak St,Phoenix,AZ,85008
788,9607 N 16th St,Phoenix,AZ,85020
789,2145 E  Sheridan St,Phoenix,AZ,85006
790,3033 E Grandview Rd,Phoenix,AZ,85032
791,3629 E Turney Ave,Phoenix,AZ,85018
792,1836 N 50th St,Phoenix,AZ,85008
793,4237 N 20th St,Phoenix,AZ,85016
794,2025 E Turney Ave,Phoenix,AZ,85016
795,4220 E  Almeria Rd c0d64e8,Phoenix,AZ,85008
796,2916 & 2912 E Granada Rd,Phoenix,AZ,85008
797,402 W Earll Dr,Phoenix,AZ,85013
798,129 N  11th Ave,Phoenix,AZ,85007
799,834 N 2nd Ave,Phoenix,AZ,85003
800,4115 E Moreland St,Phoenix,AZ,85008
801,4103 E Moreland St,Phoenix,AZ,85008
802,3502 E Cambridge Ave,Phoenix,AZ,85008
803,8107 N 33rd Dr,Phoenix,AZ,85051
804,2414 W Coolidge St APT A,Phoenix,AZ,85015
805,8200 W  Encanto Blvd,Phoenix,AZ,85035
806,8115 N  18th St   aaa42fed,Phoenix,AZ,85020
807,1207 E Wagon Wheel Dr,Phoenix,AZ,85020
808,2049 W Bloomfield Rd,Phoenix,AZ,85029
809,3119 W Cochise Dr,Phoenix,AZ,85051
810,4132 E Calle Redonda,Phoenix,AZ,85018
811,307 W Highland Ave,Phoenix,AZ,85013
812,1242 E Berridge Ln,Phoenix,AZ,85014
813,6210 N 12th Pl,Phoenix,AZ,85014
814,3115 N 55th Ave,Phoenix,AZ,85031
815,15402 N 28th St,Phoenix,AZ,85032
816,2026 E Glenrosa Ave,Phoenix,AZ,85016
817,4240 E  Camelback Rd,Phoenix,AZ,85018
818,6331 E Phoenician Blvd,Scottsdale,AZ,85251
819,7120 E Kierland Blvd,Scottsdale,AZ,85254
820,2802 E Camino Acequia Dr,Phoenix,AZ,85016
821,7140 E  Kierland Blvd,Scottsdale,AZ,85254
822,5136 N 31st Pl,Phoenix,AZ,85016
823,8 Biltmore Ests,Phoenix,AZ,85016
824,7120 E Kierland Blvd,Scottsdale,AZ,85254
825,44 W  Monroe St,Phoenix,AZ,85003
826,208 W Portland St,Phoenix,AZ,85003
827,4808 N  24th St Unit 908,Phoenix,AZ,85016
828,21320 N  56th St Unit 2030,Phoenix,AZ,85054
829,15221 N  Clubgate Dr Unit 2030,Scottsdale,AZ,85254
830,15825 N  71st St,Scottsdale,AZ,85254
831,1135 E Mountain Vista Dr,Phoenix,AZ,85048
832,7009 E  Acoma Dr Unit 1169,Scottsdale,AZ,85254
833,4204 N 38th St,Phoenix,AZ,85018
834,222 E  Jefferson St,Phoenix,AZ,85004
835,188 E  Jefferson St,Phoenix,AZ,85004
836,20600 N  55th St,Phoenix,AZ,85054
837,15826 N   Rd,Scottsdale,AZ,85254
838,1555 E Ocotillo Rd,Phoenix,AZ,85014
839,2300 E  Campbell Ave  Unit 318,Phoenix,AZ,85016
840,4808 N 24th St,Phoenix,AZ,85016
841,811 N  3rd St,Phoenix,AZ,85004
842,3622 N  38th St Unit 5,Phoenix,AZ,85018
843,15608 N  71st St,Scottsdale,AZ,85254
844,6620 N 8th Pl,Phoenix,AZ,85014
845,33550 N Dove Lakes Dr,Cave Creek,AZ,85331
846,915 E  Missouri Ave,Phoenix,AZ,85014
847,5207 N 24th St,Phoenix,AZ,85016
848,6137 N 28th Pl,Phoenix,AZ,85016
849,6149 N Central Ave,Phoenix,AZ,85012
850,5450 E  Deer Valley Dr Unit 3009,Phoenix,AZ,85054
851,11640 N Tatum Blvd,Phoenix,AZ,85028
852,2640 N 52nd St,Phoenix,AZ,85008
853,4201 E  Camelback Rd Unit 38,Phoenix,AZ,85018
854,2336 E  Marguerite Ave 041370,Phoenix,AZ,85040
855,1 E Lexington Ave,Phoenix,AZ,85012
856,204 W Portland St,Phoenix,AZ,85003
857,2989 N 44th St,Phoenix,AZ,85018
858,6611 E  Mayo Blvd Unit 1149,Phoenix,AZ,85054
859,4525 N  22nd St Unit 408,Phoenix,AZ,85016
860,351 E  Thomas Rd Unit D108,Phoenix,AZ,85012
861,3505 E Campbell Ave,Phoenix,AZ,85018
862,4949 N  7th St,Phoenix,AZ,85014
863,3900 N 30th St STE 4,Phoenix,AZ,85016
864,2821 E Turney Ave,Phoenix,AZ,85016
865,4225 N  32nd St,Phoenix,AZ,85018
866,600 N  53rd St   Unit 22,Phoenix,AZ,85008
867,1720 E  Camelback Rd,Phoenix,AZ,85016
868,4114 N  28th St,Phoenix,AZ,85016
869,777 E  Stella Ln,Phoenix,AZ,85014
870,2989 N 44th St,Phoenix,AZ,85018
871,7009 E Acoma Dr,Scottsdale,AZ,85254
872,9820 N  Central Ave Unit 206,Phoenix,AZ,85020
873,2549 E Chipman Rd,Phoenix,AZ,85040
874,111 W Missouri Ave UNIT H,Phoenix,AZ,85013
875,5450 E Deer Valley Dr,Phoenix,AZ,85054
876,4236 N 27th St,Phoenix,AZ,85016
877,4217 N 27th St,Phoenix,AZ,85016
878,911 E McKinley St,Phoenix,AZ,85006
879,102 W Maryland Ave UNIT E2,Phoenix,AZ,85013
880,3502 E Garfield St,Phoenix,AZ,85008
881,17212 N   Rd,Scottsdale,AZ,85255
882,7170 E  Tierra Buena Ln,Scottsdale,AZ,85254
883,4600 N  24th St   Unit 130,Phoenix,AZ,85016
884,15221 N Clubgate Dr,Scottsdale,AZ,85254
885,540 E  Clarendon Ave,Phoenix,AZ,85012
886,4411 N 40th St,Phoenix,AZ,85018
887,6244 N 30th Pl,Phoenix,AZ,85016
888,555 N  5th Ave,Phoenix,AZ,85003
889,1014 E Mohave St,Phoenix,AZ,85034
890,1818 W  Earll Dr,Phoenix,AZ,85015
891,6800 E  Mayo Blvd,Phoenix,AZ,85054
892,6901 E  Chauncey Ln,Phoenix,AZ,85054
893,7009 E Acoma Dr,Scottsdale,AZ,85254
894,15550 S 5th Ave,Phoenix,AZ,85045
895,1450 E Bethany Home Rd,Phoenix,AZ,85014
896,5104 N  32nd St Unit 338,Phoenix,AZ,85018
897,5350 E  Deer Valley Dr Unit 1274,Phoenix,AZ,85054
898,5340 E Deer Valley Dr,Phoenix,AZ,85054
899,6544 N 7th Ave,Phoenix,AZ,85013
900,4901 E Kelton Ln,Scottsdale,AZ,85254
901,3635 E Turney Ave,Phoenix,AZ,85018
902,499 W Missouri Ave,Phoenix,AZ,85013
903,1850 N 51st St,Phoenix,AZ,85008
904,3645 E Earll Dr,Phoenix,AZ,85018
905,24100 N  19th Ave,Phoenix,AZ,85085
906,222 E  McDowell Rd,Phoenix,AZ,85004
907,4545 W  Beardsley Rd,Glendale,AZ,85308
908,3501 E  Camelback Rd,Phoenix,AZ,85018
909,2025 E  Campbell Ave,Phoenix,AZ,85016
910,3220 N  38th St   b2b5f,Phoenix,AZ,85018
911,3646 N 38th St APT B,Phoenix,AZ,85018
912,5124 N 31st Pl,Phoenix,AZ,85016
913,16 W  Encanto Blvd Unit 512,Phoenix,AZ,85003
914,4411 N  99th Ave,Phoenix,AZ,85037
915,4900 N  44th St,Phoenix,AZ,85018
916,2526 E  Broadway Rd,Phoenix,AZ,85040
917,400 N  2nd Ave,Phoenix,AZ,85003
918,7422 S 40th Ln,Phoenix,AZ,85041
919,500 W Missouri Ave,Phoenix,AZ,85013
920,13820 S  44th St,Phoenix,AZ,85044
921,815 E  Roma Ave,Phoenix,AZ,85014
922,1411 E Orangewood Ave,Phoenix,AZ,85020
923,537 E Willetta St,Phoenix,AZ,85004
924,8125 N  23rd Ave,Phoenix,AZ,85021
925,3131 N 36th St,Phoenix,AZ,85018
926,3110 N 40th St,Phoenix,AZ,85018
927,2927 E Atlanta Ave,Phoenix,AZ,85040
928,3301 N 18th St,Phoenix,AZ,85016
929,2950 N 38th St,Phoenix,AZ,85018
930,1840 W  Thomas Rd,Phoenix,AZ,85015
931,7850 S  Central Ave,Phoenix,AZ,85041
932,1 W  Campbell Ave -A,Phoenix,AZ,85013
933,5102 N 31st Pl,Phoenix,AZ,85016
934,2150 W  Alameda Rd Unit 1317,Phoenix,AZ,85085
935,909 S 4th Ave,Phoenix,AZ,85003
936,2507 W Greenway Rd,Phoenix,AZ,85023
937,2335 E  Utopia Rd,Phoenix,AZ,85024
938,17850 N 68th St,Phoenix,AZ,85054
939,11200 W  Camelback Rd,Phoenix,AZ,85037
940,349 E Thomas Rd UNIT E307,Phoenix,AZ,85012
941,424 S 2nd St,Phoenix,AZ,85004
942,8101 N 33rd Dr,Phoenix,AZ,85051
943,3235 E Camelback Rd,Phoenix,AZ,85018
944,312 W Lynwood St,Phoenix,AZ,85003
945,11040 N 28th Dr,Phoenix,AZ,85029
946,12212 N Paradise Village Pkwy S,Phoenix,AZ,85032
947,326 N  17th Dr,Phoenix,AZ,85007
948,3270 E Camelback Rd,Phoenix,AZ,85018
949,4465 E Paradise Village Pkwy S,Phoenix,AZ,85032
950,215 E McKinley St SUITE 406,Phoenix,AZ,85004
951,4129 N 33rd Dr,Phoenix,AZ,85017
952,3131 N Central Ave,Phoenix,AZ,85012
953,320 E  Portland St,Phoenix,AZ,85004
954,5221 N 24th St,Phoenix,AZ,85016
955,1318 W Mohave St,Phoenix,AZ,85007
956,1717 W  Happy Valley Rd,Phoenix,AZ,85027
957,27777 N  Black Canyon Hwy,Phoenix,AZ,85085
958,1302 W Peoria Ave UNIT A,Phoenix,AZ,85029
959,6821 S  Montezuma St,Phoenix,AZ,85041
960,16025 S  50th St,Phoenix,AZ,85048
961,2525 S  75th Ave,Phoenix,AZ,85043
962,5151 N  16th St,Phoenix,AZ,85016
963,6236 N 16th St,Phoenix,AZ,85016
964,5525 E Thomas Rd UNIT D4,Phoenix,AZ,85018
965,8520 W Palm Ln,Phoenix,AZ,85037
966,11237 N 18th Dr,Phoenix,AZ,85029
967,3234 N 37th St,Phoenix,AZ,85018
968,3324 W McRae Way,Phoenix,AZ,85027
969,310 S 4th St,Phoenix,AZ,85004
970,2336 E  Utopia Rd   daae,Phoenix,AZ,85024
971,1500 N 35th St,Phoenix,AZ,85008
972,3010 N  2nd St,Phoenix,AZ,85012
973,7500 S  16th St,Phoenix,AZ,85042
974,20350 N  7th Ave,Phoenix,AZ,85027
975,114 W Adams St,Phoenix,AZ,85003
976,4442 E Pueblo Ave,Phoenix,AZ,85040
977,4236 E Mariposa St,Phoenix,AZ,85018
978,35035 N  North Valley Pkwy,Phoenix,AZ,85086
979,2625 E  Camelback Rd,Phoenix,AZ,85016
980,4700 N  16th St,Phoenix,AZ,85016
981,18250 N Cave Creek Rd,Phoenix,AZ,85032
982,200 E  Fillmore St,Phoenix,AZ,85004
983,1675 E  Morten Ave,Phoenix,AZ,85020
984,17440 N  Tatum Blvd,Phoenix,AZ,85032
985,1701 E  Colter St Unit 309,Phoenix,AZ,85016
986,1826 W Cholla St,Phoenix,AZ,85029
987,16818 N 2nd Ave,Phoenix,AZ,85023
988,4533 N 22nd St,Phoenix,AZ,85016
989,5132 N 31st Way,Phoenix,AZ,85016
990,1630 E  Georgia Ave Unit 105,Phoenix,AZ,85016
991,2646 N 43rd Ave,Phoenix,AZ,85009
992,700 N  4th St,Phoenix,AZ,85004
993,25300 N  22nd Ln,Phoenix,AZ,85085
994,4338 W Charter Oak Rd,Glendale,AZ,85304
995,17211 N  35th Ave,Phoenix,AZ,85053
996,1225 N 36th St,Phoenix,AZ,85008
997,3400 E  Southern Ave  a67309a,Phoenix,AZ,85040
998,18350 N  32nd St Unit 183,Phoenix,AZ,85032
999,9700 S  Central Ave,Phoenix,AZ,85041
1000,520 E Purdue Ave,Phoenix,AZ,85020
1001,4502 E  Indian School Rd,Phoenix,AZ,85018
1002,1635 E Oak St,Phoenix,AZ,85006
1003,1700 E  Baseline Rd,Phoenix,AZ,85042
1004,3601 N  Central Ave,Phoenix,AZ,85012
1005,21021 N  56th St,Phoenix,AZ,85054
1006,23700 N  23rd Ave  Unit 75,Phoenix,AZ,85085
1007,3633 N 3rd Ave,Phoenix,AZ,85013
1008,7009 E Acoma Dr,Scottsdale,AZ,85254
1009,1626 E Palm Ln,Phoenix,AZ,85006
1010,6510 N 3rd Ave,Phoenix,AZ,85013
1011,4642 E Southgate Ave,Phoenix,AZ,85040
1012,4117 W Alta Vista Rd,Phoenix,AZ,85041
1013,6534 N  27th Ave,Phoenix,AZ,85017
1014,8314 N 21st Dr,Phoenix,AZ,85021
1015,20660 N 40th St,Phoenix,AZ,85050
1016,4304 E  Campbell Ave,Phoenix,AZ,85018
1017,544 & 546 W  San Juan Ave,Phoenix,AZ,85013
1018,601 W  Fillmore St,Phoenix,AZ,85003
1019,1100 E  Bell Rd,Phoenix,AZ,85022
1020,4713 E  Van Buren St,Phoenix,AZ,85008
1021,2201 N Central Ave,Phoenix,AZ,85004
1022,4246 N 31st Pl,Phoenix,AZ,85016
1023,750 E  Northern Ave Unit 2088,Phoenix,AZ,85020
1024,2725 E  Mine Creek Rd Unit 2248,Phoenix,AZ,85024
1025,4148 E Calle Redonda,Phoenix,AZ,85018
1026,2702 E Juniper Ave,Phoenix,AZ,85032
1027,2633 E Glenrosa Ave,Phoenix,AZ,85016
1028,17217 N 17th Ave,Phoenix,AZ,85023
1029,2138 E Turney Ave APT A,Phoenix,AZ,85016
1030,3131 E  Legacy Dr Unit 2103,Phoenix,AZ,85042
1031,16160 S  50th St,Phoenix,AZ,85048
1032,5110 N  32nd St,Phoenix,AZ,85018
1033,2141 W  Madison St,Phoenix,AZ,85009
1034,4644 22nd St,Phoenix,AZ,85016
1035,4241 N  17th St,Phoenix,AZ,85016
1036,18250 N  25th Ave,Phoenix,AZ,85023
1037,3606 E  Baseline Rd,Phoenix,AZ,85042
1038,1550 E  Thunderbird Rd,Phoenix,AZ,85022
1039,4225 N 36th St,Phoenix,AZ,85018
1040,33500 N  North Valley Pkwy,Phoenix,AZ,85085
1041,2025 E Campbell Ave,Phoenix,AZ,85016
1042,1950 W  Tierra Buena Ln,Phoenix,AZ,85023
1043,17030 N  49th St,Scottsdale,AZ,85254
1044,7725 W  Lower Buckeye Rd,Phoenix,AZ,85043
1045,4202 N 38th St,Phoenix,AZ,85018
1046,41 W Encanto Blvd,Phoenix,AZ,85003
1047,68 W McDowell Rd,Phoenix,AZ,85003
1048,4208 N 31st Pl APT B,Phoenix,AZ,85016
1049,2937 E Osborn Rd,Phoenix,AZ,85016
1050,5110 N 31st Way,Phoenix,AZ,85016
1051,4303 E  Cactus Rd,Phoenix,AZ,85032
1052,17 W  Vernon Ave Unit 309,Phoenix,AZ,85003
1053,18416 N Cave Creek Rd,Phoenix,AZ,85032
1054,2207 N 28th Pl,Phoenix,AZ,85008
1055,1109 W Hadley St,Phoenix,AZ,85007
1056,3644 E McDowell Rd,Phoenix,AZ,85008
1057,1206 E  Highland Ave c7,Phoenix,AZ,85014
1058,5775 W  Roosevelt St,Phoenix,AZ,85043
1059,1010 E Osborn Rd UNIT A,Phoenix,AZ,85014
1060,920 E  Devonshire Ave  Unit 3032,Phoenix,AZ,85014
1061,1101 E  Bethany Home Rd Unit 2,Phoenix,AZ,85014
1062,4425 N 13th Pl,Phoenix,AZ,85014
1063,3702 E Glenrosa Ave,Phoenix,AZ,85018
1064,5112 N 17th Ave,Phoenix,AZ,85015
1065,4810 E Euclid Ave,Phoenix,AZ,85044
1066,2910 E Dunbar Dr,Phoenix,AZ,85042
1067,6041 N 23rd Ave,Phoenix,AZ,85015
1068,15442 N 29th St,Phoenix,AZ,85032
1069,4242 N 25th St,Phoenix,AZ,85016
1070,6501 N 17th Ave,Phoenix,AZ,85015
1071,2846 E Tierra Buena Ln,Phoenix,AZ,85032
1072,7205 W  McDowell Rd,Phoenix,AZ,85035
1073,10770 W  Highland Ave Unit 18,Phoenix,AZ,85037
1074,101 N  7th St Unit 184,Phoenix,AZ,85034
1075,6348 N 7th Ave,Phoenix,AZ,85013
1076,2838 E Monte Cristo Ave,Phoenix,AZ,85032
1077,8449 S  59th Ave,Laveen,AZ,85339
1078,4202 E  Cactus Rd,Phoenix,AZ,85032
1079,9100 S  59th Ave,Laveen,AZ,85339
1080,2107 N 77th Dr,Phoenix,AZ,85035
1081,310 W Medlock Dr,Phoenix,AZ,85013
1082,2954 E Donner Dr,Phoenix,AZ,85042
1083,1920 W Mulberry Dr,Phoenix,AZ,85015
1084,350 E Virginia Cir,Phoenix,AZ,85004
1085,5308 N 15th Dr,Phoenix,AZ,85015
1086,1850 E  Maryland Ave Unit 28,Phoenix,AZ,85016
1087,3600 N 5th Ave,Phoenix,AZ,85013
1088,4207 W Hayduk Rd,Laveen,AZ,85339
1089,844 N 4th Ave,Phoenix,AZ,85003
1090,4540 N 44th St,Phoenix,AZ,85018
1091,1319 E Purdue Ave UNIT A,Phoenix,AZ,85020
1092,3425 E  Chandler Blvd,Phoenix,AZ,85048
1093,10801 N  32nd St,Phoenix,AZ,85028
1094,15 E Oregon Ave,Phoenix,AZ,85012
1095,2743 E  Tierra Buena Ln,Phoenix,AZ,85032
1096,18250 N  32nd St Unit 1007,Phoenix,AZ,85032
1097,3825 E Camelback Rd,Phoenix,AZ,85018
1098,1017 E  Maryland Ave Unit 240,Phoenix,AZ,85014
1099,34836 N 30th Ave,Phoenix,AZ,85086
1100,5122 N 31st Way,Phoenix,AZ,85016
1101,5303 N 7th St,Phoenix,AZ,85014
1102,10030 W  Indian School Rd,Phoenix,AZ,85037
1103,16812 N 2nd Dr,Phoenix,AZ,85023
1104,2539 W Vista Ave UNIT A,Phoenix,AZ,85051
1105,2808 E  Kathleen Rd   Unit 103,Phoenix,AZ,85032
1106,1819 N 18th St,Phoenix,AZ,85006
1107,4241 N  23rd Ave,Phoenix,AZ,85015
1108,6767 N 7th St,Phoenix,AZ,85014
1109,2698 N 43rd Ave,Phoenix,AZ,85009
1110,,Phoenix,AZ,85008
1111,3111 E Clarendon Ave,Phoenix,AZ,85016
1112,3635 N 37th St,Phoenix,AZ,85018
1113,7611 S 36th St,Phoenix,AZ,85042
1114,5035 N  10th Pl Unit 212,Phoenix,AZ,85014
1115,897 E  Roma Ave Unit 3,Phoenix,AZ,85014
1116,616 N 10th Ave APT H,Phoenix,AZ,85007
1117,2910 W Marconi Ave,Phoenix,AZ,85053
1118,2819 W Louise Dr,Phoenix,AZ,85027
1119,1130 N 2nd St,Phoenix,AZ,85004
1120,17444 N 32nd St,Phoenix,AZ,85032
1121,813 E  Marlette Ave,Phoenix,AZ,85014
1122,3230 N 37th St,Phoenix,AZ,85018
1123,2146 E  Taylor St,Phoenix,AZ,85006
1124,1920 W Mulberry Dr,Phoenix,AZ,85015
1125,,Phoenix,AZ,85014
1126,4227 N 26th St APT F,Phoenix,AZ,85016
1127,3231 N 37th St,Phoenix,AZ,85018
1128,19800 N  7th St,Phoenix,AZ,85024
1129,4601 E Southgate Ave,Phoenix,AZ,85040
1130,14602 N  19th Ave,Phoenix,AZ,85023
1131,39 W  Medlock Dr,Phoenix,AZ,85013
1132,1814 E  Bell Rd,Phoenix,AZ,85022
1133,16804 N  42nd Ave,Phoenix,AZ,85053
1134,4333 N  6th Dr   a6,Phoenix,AZ,85013
1135,1717 E Union Hills Dr,Phoenix,AZ,85024
1136,18416 N Cave Creek Rd,Phoenix,AZ,85032
1137,3137 E Fairmount Ave,Phoenix,AZ,85016
1138,2414 W Coolidge St,Phoenix,AZ,85015
1139,4231 N 27th St,Phoenix,AZ,85016
1140,9011 W Elm St,Phoenix,AZ,85037
1141,17859 N 40th St,Phoenix,AZ,85032
1142,3445 N 36th St,Phoenix,AZ,85018
1143,1421 E Garfield St,Phoenix,AZ,85006
1144,4111 N  21st St,Phoenix,AZ,85016
1145,16021 N 30th St,Phoenix,AZ,85032
1146,2620 N 40th St,Phoenix,AZ,85008
1147,10218 N 12th Pl,Phoenix,AZ,85020
1148,4760 N 28th St,Phoenix,AZ,85016
1149,1333 E  Morten Ave Unit 239,Phoenix,AZ,85020
1150,16818 N 56th St,Scottsdale,AZ,85254
1151,18626 N 33rd Dr,Phoenix,AZ,85027
1152,4514 N 14th Pl,Phoenix,AZ,85014
1153,2722 N  7th St,Phoenix,AZ,85006
1154,1027 E  Dunlap Ave,Phoenix,AZ,85020
1155,4218 N 17th St,Phoenix,AZ,85016
1156,1945 W Sweetwater Ave,Phoenix,AZ,85029
1157,1820 E Morten Ave,Phoenix,AZ,85020
1158,4601 N  102nd Ave Unit 1020,Phoenix,AZ,85037
1159,3302 N 7th St,Phoenix,AZ,85014
1160,1939 E Missouri Ave,Phoenix,AZ,85016
1161,614 N 10th Ave APT C,Phoenix,AZ,85007
1162,2121 W Hayward Ave,Phoenix,AZ,85021
1163,85 W  Willetta St,Phoenix,AZ,85003
1164,502 W Highland Ave APT D,Phoenix,AZ,85013
1165,10410 N Cave Creek Rd,Phoenix,AZ,85020
1166,8849 S 7th St,Phoenix,AZ,85042
1167,17610 N 19th Ave,Phoenix,AZ,85023
1168,4406 N  14th St   a3518875,Phoenix,AZ,85014
1169,3233 N 37th St,Phoenix,AZ,85018
1170,724 E Devonshire Ave,Phoenix,AZ,85014
1171,1622 E Campbell Ave E,Phoenix,AZ,85016
1172,3615 E Glenrosa Ave,Phoenix,AZ,85018
1173,15825 N 25th St,Phoenix,AZ,85032
1174,1501 E Rovey Ave,Phoenix,AZ,85014
1175,933 E Roma Ave,Phoenix,AZ,85014
1176,2815 N 52nd St,Phoenix,AZ,85008
1177,3432 N 12th Pl,Phoenix,AZ,85014
1178,342 W Willetta St,Phoenix,AZ,85003
1179,3836 E Earll Dr,Phoenix,AZ,85018
1180,2626 N 46th St,Phoenix,AZ,85008
1181,4704 E Paradise Village Pkwy N,Phoenix,AZ,85032
1182,5646 N 6th St,Phoenix,AZ,85012
1183,1020 N 11th St,Phoenix,AZ,85006
1184,2031 E Glenrosa Ave,Phoenix,AZ,85016
1185,3848 N 3rd Ave,Phoenix,AZ,85013
1186,2021 E Osborn Rd,Phoenix,AZ,85016
1187,15801 N 29th St,Phoenix,AZ,85032
1188,2515 N 52nd St,Phoenix,AZ,85008
1189,301 W Pasadena Ave,Phoenix,AZ,85013
1190,,Phoenix,AZ,85044
1191,2326 E  Pinchot Ave,Phoenix,AZ,85016
1192,6545 N 17th Ave,Phoenix,AZ,85015
1193,4202 N 3rd Ave,Phoenix,AZ,85013
1194,2014 W Berridge Ln,Phoenix,AZ,85015
1195,2025 E Campbell Ave,Phoenix,AZ,85016
1196,2025 E Campbell Ave,Phoenix,AZ,85016
1197,2801 W Sands Dr,Phoenix,AZ,85027
1198,4232 N 14th St,Phoenix,AZ,85014
1199,1221 E Highland Ave,Phoenix,AZ,85014
1200,4514 N 14th Pl,Phoenix,AZ,85014
1201,1019 S 4th Ave,Phoenix,AZ,85003
1202,1040 E Turney Ave,Phoenix,AZ,85014
1203,18416 N Cave Creek Rd,Phoenix,AZ,85032
1204,112 N 12th Ave,Phoenix,AZ,85007
1205,743 E Coronado Rd,Phoenix,AZ,85006
1206,721 E Montebello Ave,Phoenix,AZ,85014
1207,2025 E Campbell Ave,Phoenix,AZ,85016
1208,2502 N  29th Pl,Phoenix,AZ,85008
1209,1222 E Roosevelt St,Phoenix,AZ,85006
1210,4236 N 14th St,Phoenix,AZ,85014
1211,1725 E Cambridge Ave,Phoenix,AZ,85006
1212,1336 E Willetta St,Phoenix,AZ,85006
1213,1102 E  Pierce St,Phoenix,AZ,85006
1214,2409 W Hazelwood St,Phoenix,AZ,85015
1215,5208 S 11th Ave,Phoenix,AZ,85041
1216,3615 E Glenrosa Ave,Phoenix,AZ,85018
1217,3840 N 43rd Ave,Phoenix,AZ,85031
1218,3830 E Lakewood Pkwy E,Phoenix,AZ,85048
1219,1901 W Clarendon Ave,Phoenix,AZ,85015
1220,4903 E Virginia Ave,Phoenix,AZ,85008
1221,1150 Grand Ave,Phoenix,AZ,85007
1222,718 W Hazelwood St,Phoenix,AZ,85013
1223,909 E Marlette Ave,Phoenix,AZ,85014
1224,5302 E Van Buren St,Phoenix,AZ,85008
1225,,Phoenix,AZ,85023
1226,2701 E Tierra Buena Ln,Phoenix,AZ,85032
1227,1302 W Becker Ln,Phoenix,AZ,85029
1228,11034 N 28th Dr,Phoenix,AZ,85029
1229,2824 E Wier Ave,Phoenix,AZ,85040
1230,7777 N 19th Ave,Phoenix,AZ,85021
1231,3601 N 5th Ave,Phoenix,AZ,85013
1232,4211 E Palm Ln,Phoenix,AZ,85008
1233,2722 W Myrtle Ave,Phoenix,AZ,85051
1234,475 N  9th St,Phoenix,AZ,85006
1235,1939 W  Berridge Ln,Phoenix,AZ,85015
1236,6819 N 12th St,Phoenix,AZ,85014
1237,17626 N 19th Ave,Phoenix,AZ,85023
1238,4222 S 13th St APT B,Phoenix,AZ,85040
1239,6207 N 12th St,Phoenix,AZ,85014
1240,1500 W  Thunderbird Rd,Phoenix,AZ,85023
1241,433 W Osborn Rd,Phoenix,AZ,85013
1242,3212 N  37th St,Phoenix,AZ,85018
1243,1249 W Pierce St,Phoenix,AZ,85007
1244,6530 N 12th St,Phoenix,AZ,85014
1245,110 W Maryland Ave,Phoenix,AZ,85013
1246,2012 W Orangewood Ave,Phoenix,AZ,85021
1247,3346 W Harmont Dr,Phoenix,AZ,85051
1248,5740 N 10th St,Phoenix,AZ,85014
1249,1627 N 51st St,Phoenix,AZ,85008
1250,2019 E  Turney Ave R,Phoenix,AZ,85016
1251,307 W Mariposa St,Phoenix,AZ,85013
1252,21220 N  23rd Ave,Phoenix,AZ,85027
1253,2223 E Cactus Rd,Phoenix,AZ,85022
1254,9204 S 7th Pl,Phoenix,AZ,85042
1255,1712 E Ocotillo Rd,Phoenix,AZ,85016
1256,16033 N 25th St,Phoenix,AZ,85032
1257,6033 N 23rd Ave,Phoenix,AZ,85015
1258,8330 N 21st Dr,Phoenix,AZ,85021
1259,2210 E Huntington Dr,Phoenix,AZ,85040
1260,712 W Taylor St,Phoenix,AZ,85007
1261,502 W Yukon Dr,Phoenix,AZ,85027
1262,1411 E Orangewood Ave,Phoenix,AZ,85020
1263,4750 N Central Ave,Phoenix,AZ,85012
1264,928 W  McDowell Rd,Phoenix,AZ,85007
1265,,Phoenix,AZ,85018
1266,1701 W Tuckey Ln,Phoenix,AZ,85015
1267,2340 W Morten Ave,Phoenix,AZ,85021
1268,2545 E Clarendon Ave,Phoenix,AZ,85016
1269,1132 E Devonshire Ave,Phoenix,AZ,85014
1270,1530 1/2 E Diamond St,Phoenix,AZ,85006
1271,2901 E  Roosevelt St,Phoenix,AZ,85008
1272,1548 W Sahuaro Dr,Phoenix,AZ,85029
1273,4416 N 35th Ave,Phoenix,AZ,85017
1274,9836 N Central Ave,Phoenix,AZ,85020
1275,2001 W Morten Ave,Phoenix,AZ,85021
1276,3250 W Greenway Rd,Phoenix,AZ,85053
1277,16243 N 31st St,Phoenix,AZ,85032
1278,1926 N 26th Pl APT D,Phoenix,AZ,85008
1279,1562 E  Peoria Ave Unit 1,Phoenix,AZ,85020
1280,1505 E Oak St,Phoenix,AZ,85006
1281,12844 N Paradise Village Pkwy,Phoenix,AZ,85032
1282,2232 E  Roosevelt St,Phoenix,AZ,85006
1283,5525 E  Thomas Rd Unit F10,Phoenix,AZ,85018
1284,5022 N  17th Ave,Phoenix,AZ,85015
1285,1130 N 2nd St,Phoenix,AZ,85004
1286,3223 E Harvard St,Phoenix,AZ,85008
1287,929 E Turney Ave,Phoenix,AZ,85014
1288,1804 W Tuckey Ln,Phoenix,AZ,85015
1289,2104 & 2122 E Fairmount Ave,Phoenix,AZ,85016
1290,320 W Highland Ave,Phoenix,AZ,85013
1291,13847 N 8th Pl,Phoenix,AZ,85022
1292,2550 W  Hazelwood St   a4af9df9,Phoenix,AZ,85017
1293,1718 E  Campbell Ave,Phoenix,AZ,85016
1294,362 E  Monte Vista St   d94ae1e6,Phoenix,AZ,85004
1295,4444 E  Paradise Village Pkwy N,Phoenix,AZ,85032
